ONEWEB-0271             
1 48989U 21060Y   25043.82640958 -.00000451  00000+0 -12143-2 0  9997
2 48989  87.9131 326.2924 0001926  88.1568 271.9783 13.16594000175279
ONEWEB-0272             
1 48990U 21060Z   25043.84858462  .00000037  00000+0  64464-4 0  9995
2 48990  87.9135 326.3196 0001860  86.3738 273.7605 13.16592511175226
ONEWEB-0273             
1 48991U 21060AA  25043.79475690 -.00000050  00000+0 -16526-3 0  9990
2 48991  87.9131 326.3155 0001947  80.4734 279.6617 13.16595882175193
ONEWEB-0274             
1 48992U 21060AB  25043.82007586 -.00000204  00000+0 -56831-3 0  9994
2 48992  87.9137 326.3402 0001477  91.6485 268.4815 13.16595179175230
ONEWEB-0275             
1 48993U 21060AC  25043.80901404 -.00000057  00000+0 -18278-3 0  9994
2 48993  87.9133 326.3071 0001808  83.7570 276.3767 13.16595252175162
ONEWEB-0276             
1 48994U 21060AD  25043.84225090  .00000111  00000+0  25709-3 0  9995
2 48994  87.9131 326.2970 0002033  82.2425 277.8937 13.16593212175183
ONEWEB-0277             
1 48995U 21060AE  25043.85491495  .00000083  00000+0  18351-3 0  9994
2 48995  87.9131 326.3319 0002002  91.3762 268.7598 13.16597124175170
ONEWEB-0278             
1 48996U 21060AF  25043.76942138  .00000115  00000+0  26817-3 0  9992
2 48996  87.9133 326.3084 0001929  71.9061 288.2280 13.16592444175293
ONEWEB-0279             
1 48997U 21060AG  25043.85333499  .00000084  00000+0  18574-3 0  9993
2 48997  87.9131 326.2884 0001821  90.2154 269.9185 13.16592582175234
ONEWEB-0280             
1 48998U 21060AH  25043.79238541  .00000027  00000+0  35884-4 0  9990
2 48998  87.9134 326.3051 0002135  79.6466 280.4905 13.16594885175169
ONEWEB-0281             
1 48999U 21060AJ  25043.79791501 -.00000052  00000+0 -16892-3 0  9998
2 48999  87.9132 326.3030 0001614  79.8811 280.2502 13.16591891175235
ONEWEB-0282             
1 49000U 21060AK  25043.82803261  .00000023  00000+0  26296-4 0  9999
2 49000  87.9129 326.3138 0002015  83.2907 276.8454 13.16597667175217
ONEWEB-0283             
1 49001U 21060AL  25043.81691164 -.00000452  00000+0 -12157-2 0  9993
2 49001  87.9129 326.3200 0001788  87.3428 272.7908 13.16593905175228
ONEWEB-0284             
1 49002U 21060AM  25043.81057779 -.00000190  00000+0 -53142-3 0  9991
2 49002  87.9122 326.2907 0001939  73.4593 286.6750 13.16592689175207
ONEWEB-0285             
1 49075U 21075A   25043.61768310 -.00000459  00000+0 -13115-2 0  9998
2 49075  87.8823  88.1295 0001941  95.2858 264.8492 13.12442863170993
ONEWEB-0286             
1 49076U 21075B   25043.66540043  .00000032  00000+0  54410-4 0  9995
2 49076  87.8820  88.1155 0001689  93.6245 266.5077 13.12443188170356
ONEWEB-0287             
1 49077U 21075C   25043.68210543  .00000047  00000+0  87508-4 0  9997
2 49077  87.9053 103.3880 0001607  88.6558 271.4758 13.17648219169167
ONEWEB-0288             
1 49078U 21075D   25043.65161383  .00000513  00000+0  13912-2 0  9996
2 49078  87.8820  88.1209 0001915  93.1290 267.0058 13.12443992170971
ONEWEB-0289             
1 49079U 21075E   25043.71080037  .00000011  00000+0 -37839-5 0  9991
2 49079  87.9053 103.4127 0002386  90.8954 269.2451 13.17650737169741
ONEWEB-0290             
1 49080U 21075F   25043.69392006  .00000012  00000+0 -33259-5 0  9995
2 49080  87.9053 103.3736 0002630  96.9913 263.1518 13.17650193169150
ONEWEB-0291             
1 49081U 21075G   25043.67872406  .00000060  00000+0  12186-3 0  9997
2 49081  87.9046 103.3859 0001941  92.9680 267.1673 13.17650642169144
ONEWEB-0293             
1 49082U 21075H   25043.70404209  .00000000  00000+0 -33801-4 0  9997
2 49082  87.9054 103.4069 0002079  98.5294 261.6074 13.17650477169177
ONEWEB-0294             
1 49083U 21075J   25043.65811581  .00000252  00000+0  66397-3 0  9990
2 49083  87.8818  88.1190 0002316  87.0796 273.0597 13.12440067170360
ONEWEB-0295             
1 49084U 21075K   25043.70320711  .00000040  00000+0  69006-4 0  9993
2 49084  87.9055 103.3873 0001796  88.0422 272.0915 13.17648744169134
ONEWEB-0296             
1 49085U 21075L   25043.63864664  .00000431  00000+0  11626-2 0  9993
2 49085  87.8820  88.1289 0002011  77.2134 282.9220 13.12442026170362
ONEWEB-0297             
1 49086U 21075M   25043.59323471 -.00000166  00000+0 -49620-3 0  9998
2 49086  87.8828  88.1626 0001824  97.1567 262.9769 13.12440695170960
ONEWEB-0298             
1 49087U 21075N   25043.70755265 -.00000011  00000+0 -61800-4 0  9996
2 49087  87.9054 103.4033 0001670  98.8391 261.2929 13.17650176169160
ONEWEB-0299             
1 49088U 21075P   25043.70909328 -.00000023  00000+0 -91727-4 0  9992
2 49088  87.9049 103.3615 0001678  99.5759 260.5562 13.17650858169144
ONEWEB-0300             
1 49089U 21075Q   25043.66134981  .00000167  00000+0  42971-3 0  9996
2 49089  87.8818  88.1166 0001778 108.7010 251.4311 13.12443110170995
ONEWEB-0301             
1 49090U 21075R   25043.64514101  .00000467  00000+0  12618-2 0  9999
2 49090  87.8820  88.1250 0001890 107.3258 252.8077 13.12441247170351
ONEWEB-0302             
1 49091U 21075S   25043.63215807  .00000225  00000+0  59090-3 0  9998
2 49091  87.8820  88.1276 0002180  86.7052 273.4326 13.12446100171333
ONEWEB-0304             
1 49092U 21075T   25043.68380086  .00001356  00000+0  34599-2 0  9998
2 49092  87.9054 103.3919 0001776  93.8461 266.2873 13.17644093169117
ONEWEB-0305             
1 49093U 21075U   25043.67703632  .00000041  00000+0  73431-4 0  9994
2 49093  87.9049 103.3743 0001546  90.0768 270.0541 13.17650142169141
ONEWEB-0308             
1 49094U 21075V   25043.62565472 -.00000268  00000+0 -77953-3 0  9993
2 49094  87.8818  88.1253 0001874  98.6819 261.4522 13.12443361170341
ONEWEB-0309             
1 49095U 21075W   25043.68042509  .00000077  00000+0  16631-3 0  9993
2 49095  87.9052 103.3858 0002327  91.8296 268.3102 13.17648954169115
ONEWEB-0310             
1 49096U 21075X   25043.64027264  .00000425  00000+0  11446-2 0  9996
2 49096  87.8829  88.1527 0002050  94.7369 265.3994 13.12442088170973
ONEWEB-0311             
1 49097U 21075Y   25043.68717358  .00000060  00000+0  12140-3 0  9999
2 49097  87.9054 103.3855 0001543  95.3388 264.7919 13.17648996169163
ONEWEB-0312             
1 49098U 21075Z   25043.70234811  .00000044  00000+0  81021-4 0  9998
2 49098  87.9054 103.4142 0001878  86.3460 273.7887 13.17650413169145
ONEWEB-0313             
1 49099U 21075AA  25043.63135544  .00000031  00000+0  47198-4 0  9997
2 49099  87.9054 103.4438 0001823  92.4600 267.6741 13.17649061169124
ONEWEB-0314             
1 49100U 21075AB  25043.67367872  .00000091  00000+0  20174-3 0  9995
2 49100  87.9048 103.3715 0001811  85.4092 274.7246 13.17653882169104
ONEWEB-0315             
1 49101U 21075AC  25043.61429979 -.00000250  00000+0 -72966-3 0  9992
2 49101  87.8819  88.1190 0001483  96.5092 263.6205 13.12441371171956
ONEWEB-0316             
1 49102U 21075AD  25043.60434086  .00000039  00000+0  66362-4 0  9994
2 49102  87.9053  72.8402 0001680  90.4741 269.6584 13.18686437172684
ONEWEB-0317             
1 49103U 21075AE  25043.60783272 -.00000414  00000+0 -11867-2 0  9996
2 49103  87.8821  88.1336 0002379 103.0536 257.0858 13.12441848170976
ONEWEB-0318             
1 49104U 21075AF  25043.60117852  .00000023  00000+0  24655-4 0  9997
2 49104  87.9051  72.8281 0001608  89.6711 270.4605 13.18686301172646
ONEWEB-0319             
1 49105U 21075AG  25043.68884898  .00000090  00000+0  19743-3 0  9992
2 49105  87.9053 103.4105 0001462  91.2761 268.8538 13.17650548169147
ONEWEB-0323             
1 49106U 21075AH  25043.67432652 -.00000315  00000+0 -91115-3 0  9994
2 49106  87.8821  88.1066 0001267  80.1890 279.9382 13.12442232170346
ONEWEB-0329             
1 49107U 21075AJ  25043.69728672  .00000051  00000+0  98097-4 0  9999
2 49107  87.9053 103.4133 0001775  94.2614 265.8720 13.17650826169124
ONEWEB-0330             
1 49108U 21075AK  25043.69897703  .00000032  00000+0  50005-4 0  9998
2 49108  87.9055 103.4150 0001974  92.8179 267.3179 13.17647905169160
ONEWEB-0292             
1 49186U 21083A   25043.95177765  .00000239  00000+0  62056-3 0  9998
2 49186  87.8884  57.5250 0001655  90.3076 269.8243 13.13470215166700
ONEWEB-0303             
1 49187U 21083B   25043.59801658 -.00000032  00000+0 -11304-3 0  9997
2 49187  87.9051  72.8306 0001666  92.3838 267.7485 13.18686267165457
ONEWEB-0306             
1 49188U 21083C   25043.58852064  .00000022  00000+0  23648-4 0  9996
2 49188  87.9050  72.8176 0002069  93.1848 266.9521 13.18687624165494
ONEWEB-0307             
1 49189U 21083D   25043.94622657  .00000380  00000+0  10056-2 0  9994
2 49189  87.8884  57.5286 0002185  87.7872 272.3507 13.13468247166709
ONEWEB-0320             
1 49190U 21083E   25043.59486023  .00000057  00000+0  11217-3 0  9994
2 49190  87.9052  72.8440 0001890  92.6551 267.4798 13.18686036166735
ONEWEB-0321             
1 49191U 21083F   25043.96357909 -.00000052  00000+0 -15885-3 0  9998
2 49191  87.9290  11.7774 0002036  87.1697 272.9669 13.20770488172255
ONEWEB-0322             
1 49192U 21083G   25043.94226142  .00000236  00000+0  61246-3 0  9995
2 49192  87.8884  57.5187 0002267  94.6988 265.4400 13.13470978166696
ONEWEB-0324             
1 49193U 21083H   25043.58062056 -.00000020  00000+0 -84566-4 0  9992
2 49193  87.9052  72.8266 0001896  85.6660 274.4689 13.18686979165476
ONEWEB-0325             
1 49194U 21083J   25043.58538242  .00000034  00000+0  54629-4 0  9998
2 49194  87.9053  72.8426 0002000  95.7644 264.3717 13.18686220165488
ONEWEB-0326             
1 49195U 21083K   25043.59960431  .00000008  00000+0 -11708-4 0  9992
2 49195  87.9050  72.8328 0001500  89.4660 270.6644 13.18685955165471
ONEWEB-0327             
1 49196U 21083L   25043.59880657 -.00000007  00000+0 -50927-4 0  9990
2 49196  87.9052  72.8598 0001524  94.4911 265.6395 13.18686446165499
